ONEWEB-0228             
1 48780U 21045P   24112.33979886  .00000011  00000+0 -46480-5 0  9991
2 48780  87.9029  55.7582 0001809  80.5763 279.5572 13.15547682140872
